COSMOS 2251 DEB         
1 38065U 93036BRX 17345.64044584  .00001274  00000-0  34404-3 0  9990
2 38065  74.0303 189.7123 0019197 251.3437 164.6079 14.48790475296193
